[{"OBJECT_NAME":"STARLINK-2588","OBJECT_ID":"2021-038AX","EPOCH":"2026-03-09T22:36:04.296960","MEAN_MOTION":15.15106652,"ECCENTRICITY":0.00059986,"INCLINATION":53.0735,"RA_OF_ASC_NODE":337.743,"ARG_OF_PERICENTER":113.5514,"MEAN_ANOMALY":246.611,"EPHEMERIS_TYPE":0,"CLASSIFICATION_TYPE":"U","NORAD_CAT_ID":48398,"ELEMENT_SET_NO":999,"REV_AT_EPOCH":26860,"BSTAR":0.0020267128,"MEAN_MOTION_DOT":0.00038318,"MEAN_MOTION_DDOT":0},{"OBJECT_NAME":"HAWK-12B","OBJECT_ID":"2025-138B","EPOCH":"2026-03-09T22:55:04.503936","MEAN_MOTION":15.17351346,"ECCENTRICITY":0.00148402,"INCLINATION":97.4491,"RA_OF_ASC_NODE":73.6322,"ARG_OF_PERICENTER":119.8702,"MEAN_ANOMALY":240.4008,"EPHEMERIS_TYPE":0,"CLASSIFICATION_TYPE":"U","NORAD_CAT_ID":64622,"ELEMENT_SET_NO":999,"REV_AT_EPOCH":3881,"BSTAR":0.00030366166,"MEAN_MOTION_DOT":6.011e-5,"MEAN_MOTION_DDOT":0}]
